93P/Lovas,e,12.2033,339.6282,74.8493,4.379692,0.1075323,0.61362528,231.8310,01/27.0/2023,2000,g  9.0,4.0
# From MPEC 2023-B57
94P/Russell,e,6.1877,70.8565,92.4211,3.509300,0.1499248,0.36538437,342.8948,01/27.0/2023,2000,g  9.0,6.0
# From MPC 75717
95P/Chiron,e,6.9184,209.3049,339.4523,13.71301,0.0194091,0.37619873,192.3111,01/27.0/2023,2000,g  6.5,2.0
# From MPEC 2022-ST7
96P/Machholz,e,57.5030,93.9541,14.7485,3.030783,0.1867978,0.96158591,359.2362,01/27.0/2023,2000,g 13.0,4.8
# From MPEC 2022-C56
97P/Metcalf-Brewington,e,17.9521,184.0767,230.0104,4.762048,0.0948448,0.46018814,32.7507,01/27.0/2023,2000,g  5.5,6.0
# From MPEC 2021-W31
98P/Takamizawa,e,10.5616,114.6769,157.7971,3.793324,0.1334056,0.56219656,100.3826,01/27.0/2023,2000,g  9.0,8.0
# From MPEC 2022-YB4
99P/Kowal,e,4.3399,28.1017,174.8425,6.101770,0.0653913,0.22878676,18.9779,01/27.0/2023,2000,g  4.5,6.0
# From MPEC 2022-QD9
100P/Hartley,e,25.5669,37.6880,181.9623,3.431196,0.1550729,0.41198275,26.2187,01/27.0/2023,2000,g  9.0,8.0
# From MPEC 2022-K19
101P/Chernykh,e,5.0507,116.2024,277.7747,5.809040,0.0703959,0.59639322,78.1281,01/27.0/2023,2000,g 10.0,4.8
# From MPEC 2022-C56
102P/Shoemaker,e,25.8812,339.3694,20.6467,3.816415,0.1321967,0.45709686,97.0809,01/27.0/2023,2000,g  6.5,8.0
# From MPEC 2018-HA5
103P/Hartley,e,13.6103,219.7511,181.2987,3.474900,0.1521566,0.69374939,320.6637,01/27.0/2023,2000,g  8.5,8.0
# From MPEC 2022-P82
104P/Kowal,e,5.7027,207.2071,227.2509,3.208378,0.1715046,0.66562942,65.2293,01/27.0/2023,2000,g 16.0,4.0
# From MPC109147
105P/Singer Brewster,e,9.1684,192.3952,46.4318,3.469544,0.1525090,0.40884035,249.1173,01/27.0/2023,2000,g 11.5,6.0
# From MPEC 2022-GA9
106P/Schuster,e,19.5380,48.8685,353.7204,3.765345,0.1348953,0.59395053,70.9715,01/27.0/2023,2000,g 14.0,4.8
# From MPEC 2015-M77
107P/Wilson-Harrington,e,2.7992,266.7736,95.4428,2.624437,0.2318194,0.63166746,36.0113,01/27.0/2023,2000,g  9.0,4.0
# From MPEC 2022-P82
108P/Ciffreo,e,11.4369,50.2759,354.4755,3.740776,0.1362265,0.55609151,68.6297,01/27.0/2023,2000,g  8.0,12.0
# From  105, 420
109P/Swift-Tuttle,e,113.7586,139.2158,153.0550,26.19475,0.0073516,0.96259116,80.8783,01/27.0/2023,2000,g  4.0,6.0
# From MPEC 2022-P82
110P/Hartley,e,11.7046,287.5195,167.4614,3.603802,0.1440664,0.31867728,67.0807,01/27.0/2023,2000,g  1.0,12.0
# From MPC 75718
111P/Helin-Roman-Crockett,e,4.2258,89.7512,1.0818,4.150747,0.1165506,0.10681529,68.7303,01/27.0/2023,2000,g  5.0,8.0
# From MPEC 2021-S45
112P/Urata-Niijima,e,24.2126,31.8341,21.4700,3.524479,0.1489573,0.59053908,161.3724,01/27.0/2023,2000,g 14.0,6.0
# From MPEC 2023-B57
113P/Spitaler,e,5.2896,306.6783,115.5389,3.691803,0.1389461,0.41983348,33.2774,01/27.0/2023,2000,g 13.5,4.0
# From MPEC 2023-A50
114P/Wiseman-Skiff,e,18.2882,271.0258,172.7443,3.542974,0.1477924,0.55540839,163.8361,01/27.0/2023,2000,g 11.5,6.0
# From MPEC 2021-UA9
115P/Maury,e,11.6772,176.0067,121.0039,4.272144,0.1116183,0.51799858,101.7756,01/27.0/2023,2000,g 10.5,6.0
# From MPEC 2023-B57
116P/Wild,e,3.6034,20.9797,173.2677,3.489510,0.1512020,0.37042463,29.3562,01/27.0/2023,2000,g  2.5,10.0
# From MPEC 2022-X67
117P/Helin-Roman-Alu,e,8.7038,58.8379,223.0062,4.083515,0.1194408,0.25558935,24.2378,01/27.0/2023,2000,g  2.5,8.0
# From MPEC 2023-B57
118P/Shoemaker-Levy,e,10.0918,142.0967,314.8404,3.346521,0.1609955,0.45346283,10.2485,01/27.0/2023,2000,g 12.0,4.0
# From MPEC 2023-B57
119P/Parker-Hartley,e,7.3933,104.5710,322.0803,3.804440,0.1328214,0.38818718,22.3070,01/27.0/2023,2000,g  3.5,8.0
# From MPEC 2022-CN4
120P/Mueller,e,8.4895,358.6729,36.6705,3.965577,0.1248086,0.37488000,78.5607,01/27.0/2023,2000,g 12.0,4.0
# From MPEC 2023-B57
121P/Shoemaker-Holt,e,20.1651,94.1151,11.6179,4.583781,0.1004311,0.18617804,344.6872,01/27.0/2023,2000,g  6.5,8.0
# From MPC 75718
122P/de Vico,e,85.5851,79.6647,12.9903,17.62411,0.0133212,0.96233198,133.2280,01/27.0/2023,2000,g  7.5,5.2
# From MPEC 2021-F20
123P/West-Hartley,e,15.2862,45.9087,104.0943,3.880177,0.1289516,0.44440299,187.7983,01/27.0/2023,2000,g 12.2,4.0
# From MPEC 2022-YN2
124P/Mrkos,e,31.6333,0.1201,185.2685,3.364692,0.1596931,0.49024233,161.7295,01/27.0/2023,2000,g 13.5,2.8
# From MPEC 2022-YB4
125P/Spacewatch,e,9.9861,153.1505,87.1789,3.127995,0.1781579,0.51208568,287.7848,01/27.0/2023,2000,g 13.0,6.0
# From MPC 66205
126P/IRAS,e,45.8762,357.8717,356.5969,5.633887,0.0737041,0.69638319,348.2577,01/27.0/2023,2000,g  9.0,4.0
# From MPEC 2023-A50
127P/Holt-Olmstead,e,14.3011,13.6044,6.2696,3.452537,0.1536373,0.35955927,26.0547,01/27.0/2023,2000,g 11.0,6.0
# From MPC 89014
128P/Shoemaker-Holt,e,4.3703,214.3264,210.2746,4.488238,0.1036550,0.32188414,228.7265,01/27.0/2023,2000,g  8.5,4.0
# From MPEC 2023-B57
129P/Shoemaker-Levy,e,3.4424,184.8612,307.4361,4.288596,0.1109766,0.08492819,6.4394,01/27.0/2023,2000,g 11.0,4.0
# From MPEC 2022-ED3
130P/McNaught-Hughes,e,6.0629,70.1829,246.1027,3.382939,0.1584028,0.46114302,289.7027,01/27.0/2023,2000,g 10.0,6.0
# From MPC102101
131P/Mueller,e,7.3613,214.1474,179.0702,3.678636,0.1396928,0.34472054,204.2350,01/27.0/2023,2000,g 11.0,4.0
# From MPEC 2022-O08
132P/Helin-Roman-Alu,e,5.3827,173.9950,216.3941,3.888011,0.1285620,0.56472851,56.5426,01/27.0/2023,2000,g 11.0,6.0
# From MPC 94676
133P/Elst-Pizarro,e,1.3898,160.0998,131.9023,3.165503,0.1750008,0.15639587,277.8914,01/27.0/2023,2000,g 15.4,2.0
# From MPC 89012
134P/Kowal-Vavrova,e,4.3343,202.0489,18.8373,6.264723,0.0628566,0.58501513,199.9995,01/27.0/2023,2000,g 11.5,4.0
# From MPEC 2022-OB6
135P/Shoemaker-Levy,e,6.0634,213.0266,22.3259,3.799778,0.1330659,0.29463534,39.2077,01/27.0/2023,2000,g  7.0,8.0
# From MPEC 2022-K19
136P/Mueller,e,9.4245,137.4335,225.1016,4.189276,0.1149465,0.29341226,278.7654,01/27.0/2023,2000,g 11.0,4.0
# From MPEC 2022-K19
137P/Shoemaker-Levy,e,4.8579,232.9506,141.1547,4.521432,0.1025156,0.57385933,154.1982,01/27.0/2023,2000,g 11.0,4.0
# From MPEC 2016-U66
138P/Shoemaker-Levy,e,10.0907,309.2833,95.5910,3.620257,0.1430853,0.53136150,195.1571,01/27.0/2023,2000,g 15.0,6.0
# From MPEC 2020-HN5
139P/Vaisala-Oterma,e,2.3368,242.1391,165.7671,4.518550,0.1026137,0.24791343,192.0687,01/27.0/2023,2000,g  9.5,4.0
# From MPEC 2015-E14
140P/Bowell-Skiff,e,3.8455,343.2251,172.7006,6.414115,0.0606735,0.69395482,165.8743,01/27.0/2023,2000,g 11.5,6.0
# From MPEC 2022-K19
141P/Machholz,e,13.9548,241.7939,153.6011,3.057598,0.1843459,0.73604851,142.2133,01/27.0/2023,2000,g 12.0,12.0
# From MPEC 2022-SU8
141P-I/Machholz,e,13.9546,241.7987,153.5754,3.048247,0.1851948,0.73525591,142.9499,01/27.0/2023,2000,g 17.5,4.0
# From MPEC 2021-Y10
142P/Ge-Wang,e,12.2514,175.9323,174.0206,5.000278,0.0881481,0.49709377,55.0281,01/27.0/2023,2000,g  8.5,6.0
# From MPEC 2022-WQ9
143P/Kowal-Mrkos,e,4.7242,244.9174,320.3531,4.271357,0.1116491,0.41368106,192.9497,01/27.0/2023,2000,g 13.5,2.0
# From MPC104795
144P/Kushida,e,3.9301,242.9707,216.3528,3.829455,0.1315220,0.63507746,312.1729,01/27.0/2023,2000,g  8.5,8.0
# From MPC108598
145P/Shoemaker-Levy,e,11.2802,26.7971,10.2709,4.135597,0.1171917,0.54239210,231.0108,01/27.0/2023,2000,g 13.5,4.0
# From MPC100284
146P/Shoemaker-LINEAR,e,23.1195,53.3758,317.0273,4.029170,0.1218655,0.64749725,292.1891,01/27.0/2023,2000,g 15.0,4.0
# From MPC 75720
147P/Kushida-Muramatsu,e,2.3092,91.7358,348.3205,4.027378,0.1219468,0.21578234,321.8346,01/27.0/2023,2000,g 14.0,4.0
# From MPEC 2021-S45
148P/Anderson-LINEAR,e,3.6580,89.2034,8.0423,3.618891,0.1431663,0.54995693,32.5414,01/27.0/2023,2000,g 16.0,2.0
# From MPC 75720
149P/Mueller,e,34.2862,143.9564,30.9644,4.133238,0.1172920,0.32233624,191.6165,01/27.0/2023,2000,g  8.0,8.0
# From MPEC 2022-YN2
150P/LONEOS,e,18.5320,272.0989,245.9699,3.874196,0.1292503,0.54897406,306.9641,01/27.0/2023,2000,g 13.5,4.0
# From MPEC 2022-K19
151P/Helin,e,4.7276,143.1484,216.1171,5.763051,0.0712402,0.57378639,189.6565,01/27.0/2023,2000,g 10.0,6.0
# From MPEC 2022-UY9
152P/Helin-Lawrence,e,9.8793,91.8522,164.0411,4.477638,0.1040233,0.30861686,39.3108,01/27.0/2023,2000,g 11.5,4.0
# From MPC 46101
153P/Ikeya-Zhang,e,28.1541,93.4740,34.6880,50.36847,0.0027572,0.98977003,0.0000,03/02.8035/2002,2000,g  9.0,4.0
# From MPEC 2022-K19
154P/Brewington,e,17.6324,343.0286,47.9148,4.797624,0.0937918,0.67613607,312.9684,01/27.0/2023,2000,g  2.5,12.0
# From MPEC 2022-YN2
155P/Shoemaker,e,6.4018,97.1708,14.5432,6.572696,0.0584910,0.72670065,68.3671,01/27.0/2023,2000,g 10.0,4.8
# From MPEC 2022-GA9
156P/Russell-LINEAR,e,17.2698,35.3428,0.4740,3.462088,0.1530019,0.61515063,122.3743,01/27.0/2023,2000,g 15.5,2.0
# From MPEC 2023-B57
157P/Tritton,e,12.4203,287.5460,155.0706,3.545680,0.1476232,0.55668627,20.5458,01/27.0/2023,2000,g 10.0,4.0
# From MPEC 2022-VC5
157P-B/Tritton,e,12.4272,287.0884,153.9422,3.101041,0.1804857,0.49970431,25.4468,01/27.0/2023,2000,g 15.7,4.0
# From MPEC 2023-A50
158P/Kowal-LINEAR,e,7.4825,132.7756,193.2080,5.345585,0.0797464,0.09688740,34.3216,01/27.0/2023,2000,g  9.0,4.0
# From MPEC 2021-N06
159P/LONEOS,e,23.4829,54.9451,4.5773,5.852613,0.0696112,0.38254363,119.0110,01/27.0/2023,2000,g 10.0,4.0
# From MPEC 2022-K19
160P/LINEAR,e,15.6116,333.3608,12.7792,3.776776,0.1342834,0.52609175,154.6047,01/27.0/2023,2000,g 15.5,2.0
# From MPC 75721
161P/Hartley-IRAS,e,95.8015,1.5819,47.0311,7.717010,0.0459759,0.83546066,295.5777,01/27.0/2023,2000,g  8.5,6.0
# From MPEC 2023-A50
162P/SidingSpring,e,27.5647,30.8884,357.1864,3.092079,0.1812709,0.58316610,141.3754,01/27.0/2023,2000,g 12.0,4.0
# From MPEC 2021-S45
163P/NEAT,e,12.7157,102.0676,349.5558,3.764777,0.1349259,0.45258146,171.4308,01/27.0/2023,2000,g 14.5,4.0
# From MPEC 2021-F20
164P/Christensen,e,16.2694,88.2664,325.8712,3.654429,0.1410830,0.54094417,239.8754,01/27.0/2023,2000,g 11.0,4.0
# From MPC 75721
165P/LINEAR,e,15.8947,0.8648,125.7894,17.83941,0.0130808,0.61652206,108.4187,01/27.0/2023,2000,g 11.5,2.0
# From MPC 75722
166P/NEAT,e,15.3844,64.3504,321.6534,13.81563,0.0191932,0.38462945,144.7677,01/27.0/2023,2000,g  5.5,4.0
# From MPC 75722
